{"type":"FeatureCollection","name":"수원시 4개 구 경계","features":[{"type":"Feature","properties":{"sig_cd":"41111","sig_kor_nm":"수원시 장안구","ctp_kor_nm":"","full_nm":"수원시 장안구","source":"Downloads.zip/sigungu/sig.shp"},"geometry":{"type":"Polygon","coordinates":[[[127.019757,37.351045],[127.020084,37.350815],[127.020581,37.350756],[127.02138,37.350244],[127.021843,37.350119],[127.022366,37.349754],[127.022928,37.349675],[127.023165,37.349454],[127.023577,37.349341],[127.024164,37.348679],[127.025134,37.348379],[127.026229,37.348423],[127.027245,37.347942],[127.028672,37.347543],[127.029115,37.347023],[127.029814,37.346806],[127.030728,37.346054],[127.031222,37.345502],[127.03242,37.345027],[127.033456,37.344519],[127.032979,37.343805],[127.032739,37.343049],[127.032382,37.342499],[127.03193,37.342103],[127.031826,37.341422],[127.03185,37.341104],[127.031683,37.340564],[127.031639,37.339699],[127.031321,37.338899],[127.031332,37.338548],[127.031573,37.338021],[127.031473,37.337581],[127.031653,37.337275],[127.031506,37.336802],[127.031681,37.336622],[127.031715,37.336428],[127.032065,37.336306],[127.032346,37.335995],[127.032716,37.335736],[127.032715,37.33522],[127.034039,37.334453],[127.03449,37.334413],[127.034631,37.33431],[127.035003,37.333787],[127.03524,37.333584],[127.03526,37.333066],[127.035884,37.332285],[127.035959,37.331767],[127.035725,37.331536],[127.035908,37.33117],[127.036034,37.33052],[127.036429,37.330241],[127.036701,37.329887],[127.036629,37.329395],[127.037315,37.328664],[127.037404,37.328403],[127.038103,37.32833],[127.037788,37.327579],[127.03753,37.327342],[127.037042,37.327019],[127.036926,37.326868],[127.037058,37.326198],[127.037459,37.325808],[127.037805,37.324672],[127.038212,37.324446],[127.038604,37.324388],[127.03884,37.324082],[127.039427,37.323676],[127.039539,37.323401],[127.039774,37.323246],[127.039475,37.322719],[127.039414,37.321545],[127.039754,37.321097],[127.039696,37.320937],[127.039354,37.320806],[127.038851,37.320485],[127.038787,37.320153],[127.038929,37.319533],[127.038908,37.319103],[127.038694,37.31889],[127.038645,37.31782],[127.038806,37.317318],[127.038686,37.317156],[127.038407,37.316358],[127.03812,37.316068],[127.037896,37.315725],[127.037104,37.315279],[127.036605,37.315172],[127.035891,37.314502],[127.035401,37.314279],[127.035156,37.314034],[127.03464,37.313723],[127.034297,37.313644],[127.033724,37.312407],[127.033517,37.312163],[127.032966,37.311691],[127.033134,37.310935],[127.032937,37.310711],[127.032606,37.310136],[127.032391,37.309641],[127.032644,37.309458],[127.032689,37.308974],[127.032864,37.308253],[127.033241,37.307913],[127.032959,37.307303],[127.033185,37.306893],[127.03324,37.30655],[127.033197,37.306161],[127.03306,37.305719],[127.033309,37.305289],[127.033323,37.30497],[127.033324,37.304773],[127.033217,37.304482],[127.033161,37.304011],[127.033216,37.303935],[127.033105,37.303464],[127.033204,37.303155],[127.033004,37.302833],[127.033093,37.302445],[127.033047,37.301883],[127.032897,37.301607],[127.032906,37.301213],[127.032781,37.301183],[127.03274,37.300821],[127.032581,37.300493],[127.032712,37.300507],[127.032863,37.299963],[127.033571,37.298779],[127.033524,37.29851],[127.033651,37.298268],[127.034172,37.297814],[127.034179,37.297694],[127.03386,37.297044],[127.033883,37.296471],[127.034128,37.29589],[127.034361,37.295662],[127.035149,37.294402],[127.035028,37.294397],[127.035046,37.294286],[127.035231,37.294189],[127.034432,37.293711],[127.034324,37.293697],[127.034045,37.293466],[127.034075,37.293441],[127.034025,37.293415],[127.034083,37.293362],[127.033735,37.29299],[127.032882,37.292675],[127.032897,37.292596],[127.03165,37.292513],[127.031509,37.292446],[127.030623,37.292281],[127.028971,37.291803],[127.028824,37.291954],[127.02704,37.291502],[127.026688,37.291369],[127.026297,37.291137],[127.02598,37.290841],[127.025074,37.289551],[127.024915,37.289201],[127.025286,37.289007],[127.025408,37.288827],[127.02535,37.288788],[127.02526,37.288992],[127.024887,37.289179],[127.02482,37.289081],[127.024676,37.289162],[127.024526,37.28937],[127.024367,37.289436],[127.0242,37.289417],[127.023814,37.289124],[127.023615,37.289106],[127.023536,37.288941],[127.023214,37.288651],[127.022814,37.288557],[127.022421,37.288023],[127.021883,37.287659],[127.021346,37.287444],[127.021336,37.287381],[127.02124,37.287422],[127.02125,37.287395],[127.020401,37.28712],[127.019633,37.287369],[127.019284,37.287276],[127.018914,37.287048],[127.018765,37.287049],[127.018502,37.287221],[127.018411,37.287225],[127.018434,37.287261],[127.018308,37.287401],[127.018289,37.287514],[127.018151,37.28763],[127.017303,37.287634],[127.017206,37.28771],[127.016972,37.288141],[127.016461,37.28851],[127.016513,37.288592],[127.016438,37.288626],[127.016395,37.288553],[127.014984,37.289101],[127.014873,37.289191],[127.014923,37.289267],[127.014887,37.289315],[127.014814,37.289274],[127.01477,37.28936],[127.014689,37.289324],[127.014754,37.289252],[127.014724,37.289189],[127.014388,37.288985],[127.014198,37.289099],[127.014017,37.289034],[127.013932,37.288918],[127.013975,37.288775],[127.013805,37.288675],[127.013543,37.288612],[127.013481,37.288682],[127.01341,37.288652],[127.013459,37.28858],[127.013369,37.288363],[127.012845,37.287622],[127.012619,37.287407],[127.01233,37.287212],[127.012264,37.287267],[127.012201,37.28722],[127.012267,37.287159],[127.012123,37.287051],[127.011702,37.286833],[127.011119,37.286447],[127.010881,37.286354],[127.010849,37.286395],[127.010764,37.286372],[127.010781,37.286316],[127.009759,37.285846],[127.009634,37.285809],[127.009586,37.285882],[127.009514,37.285857],[127.00964,37.285674],[127.009514,37.28565],[127.00948,37.285512],[127.007781,37.285701],[127.007422,37.285454],[127.007142,37.285193],[127.006885,37.28573],[127.006461,37.285786],[127.006104,37.285895],[127.00594,37.28613],[127.005704,37.286258],[127.005631,37.286381],[127.002523,37.287936],[127.000683,37.289652],[126.999597,37.289291],[126.998962,37.289191],[126.998355,37.289155],[126.997023,37.288782],[126.994008,37.287634],[126.993859,37.287643],[126.990489,37.286351],[126.988549,37.289572],[126.988459,37.289581],[126.988016,37.289831],[126.987728,37.289841],[126.98758,37.289684],[126.986507,37.288905],[126.986643,37.288747],[126.986549,37.288698],[126.986017,37.289304],[126.986099,37.289352],[126.986072,37.289378],[126.98616,37.289401],[126.984698,37.291028],[126.984232,37.290848],[126.984027,37.291075],[126.983905,37.290973],[126.983813,37.290803],[126.983552,37.290752],[126.977338,37.288359],[126.978398,37.286641],[126.975369,37.285604],[126.975227,37.285628],[126.975082,37.285579],[126.974668,37.28555],[126.974514,37.285622],[126.973945,37.285734],[126.973646,37.285864],[126.973705,37.285985],[126.973759,37.285984],[126.973728,37.286186],[126.973175,37.286848],[126.973064,37.28728],[126.972917,37.287399],[126.972591,37.287493],[126.972546,37.28742],[126.97207,37.287285],[126.972056,37.287139],[126.971735,37.286823],[126.97137,37.286742],[126.97093,37.286795],[126.970364,37.286662],[126.969446,37.286634],[126.969611,37.286679],[126.96964,37.28674],[126.969682,37.287723],[126.969885,37.288055],[126.969954,37.288517],[126.969719,37.289065],[126.969508,37.289185],[126.969372,37.289353],[126.968542,37.289801],[126.968511,37.28996],[126.968864,37.29056],[126.968853,37.291123],[126.968736,37.29146],[126.968577,37.29166],[126.968258,37.292547],[126.96829,37.29305],[126.96813,37.293295],[126.968081,37.294184],[126.968034,37.294287],[126.967499,37.294858],[126.966984,37.295286],[126.967017,37.295317],[126.96664,37.295549],[126.966401,37.295772],[126.966265,37.295772],[126.966058,37.296016],[126.966022,37.296354],[126.965888,37.296662],[126.965273,37.29672],[126.96486,37.296892],[126.964654,37.297369],[126.964675,37.297659],[126.964579,37.297867],[126.964247,37.298131],[126.963694,37.298729],[126.963738,37.298797],[126.963657,37.299343],[126.963656,37.300132],[126.963725,37.300556],[126.963916,37.300902],[126.96182,37.301535],[126.961137,37.301865],[126.960667,37.302186],[126.960342,37.302242],[126.960868,37.302347],[126.962034,37.30241],[126.963238,37.303521],[126.964223,37.30457],[126.964203,37.304604],[126.964264,37.30462],[126.964969,37.305448],[126.965583,37.306423],[126.965568,37.30648],[126.965695,37.306623],[126.966218,37.307796],[126.966597,37.309032],[126.966727,37.309664],[126.966858,37.31082],[126.966885,37.311564],[126.966771,37.314291],[126.966573,37.316527],[126.966639,37.316558],[126.966517,37.316675],[126.966548,37.31675],[126.966434,37.317683],[126.966774,37.317685],[126.967187,37.31786],[126.96747,37.31807],[126.967905,37.318176],[126.968409,37.318618],[126.968367,37.318646],[126.968715,37.319447],[126.968789,37.319749],[126.969012,37.320129],[126.969405,37.320456],[126.969161,37.320814],[126.967993,37.3216],[126.967902,37.322097],[126.967178,37.322285],[126.966948,37.322865],[126.966673,37.323076],[126.96667,37.323216],[126.966864,37.323391],[126.966839,37.323727],[126.966624,37.323951],[126.967438,37.32451],[126.967614,37.324785],[126.968404,37.325124],[126.968521,37.325528],[126.968382,37.32607],[126.968463,37.326313],[126.9686,37.326515],[126.968518,37.327022],[126.968872,37.328019],[126.969298,37.328026],[126.969737,37.328139],[126.970234,37.329303],[126.970608,37.32969],[126.970495,37.329921],[126.970575,37.33088],[126.970975,37.331189],[126.97124,37.33155],[126.971261,37.331779],[126.972544,37.331375],[126.973038,37.331111],[126.973628,37.330238],[126.974001,37.329912],[126.974176,37.329696],[126.974577,37.329375],[126.97576,37.328862],[126.977272,37.328604],[126.977561,37.32838],[126.978233,37.328332],[126.978438,37.328258],[126.978649,37.327815],[126.979699,37.327368],[126.980464,37.327149],[126.981604,37.326578],[126.982919,37.326676],[126.983376,37.326956],[126.983926,37.327437],[126.984199,37.328071],[126.984563,37.328389],[126.984771,37.328173],[126.984811,37.328223],[126.984692,37.328448],[126.985157,37.328797],[126.985727,37.328869],[126.986702,37.329435],[126.987391,37.32962],[126.988066,37.32961],[126.989237,37.329802],[126.989663,37.330143],[126.989959,37.330677],[126.989746,37.332413],[126.990194,37.332636],[126.990683,37.333269],[126.991162,37.333389],[126.991631,37.33401],[126.992242,37.334108],[126.993652,37.334608],[126.993983,37.334775],[126.99449,37.334783],[126.994864,37.335526],[126.995709,37.335997],[126.99679,37.336399],[126.99724,37.3365],[126.997786,37.336695],[126.999068,37.337007],[127.000664,37.338568],[127.001388,37.338744],[127.002192,37.338794],[127.003409,37.338607],[127.004404,37.338792],[127.004863,37.339214],[127.005193,37.339317],[127.005742,37.339335],[127.006578,37.339236],[127.007636,37.339333],[127.00824,37.339318],[127.008674,37.339251],[127.008901,37.339304],[127.009166,37.34036],[127.009831,37.340714],[127.010158,37.341374],[127.010108,37.342],[127.011072,37.342987],[127.010899,37.343493],[127.011617,37.344044],[127.011974,37.344418],[127.012646,37.345431],[127.012602,37.346979],[127.012795,37.347371],[127.013146,37.347796],[127.014121,37.348134],[127.014283,37.349428],[127.01465,37.349617],[127.01509,37.349699],[127.015396,37.349929],[127.016002,37.350237],[127.016245,37.350205],[127.017324,37.350507],[127.018173,37.350962],[127.018783,37.351036],[127.019682,37.351044],[127.019757,37.351045]]]}},{"type":"Feature","properties":{"sig_cd":"41113","sig_kor_nm":"수원시 권선구","ctp_kor_nm":"","full_nm":"수원시 권선구","source":"Downloads.zip/sigungu/sig.shp"},"geometry":{"type":"Polygon","coordinates":[[[127.037225,37.236844],[127.036115,37.236633],[127.035856,37.236674],[127.03558,37.23684],[127.035276,37.236845],[127.034836,37.236764],[127.034673,37.236656],[127.034627,37.23657],[127.034847,37.236142],[127.034717,37.235958],[127.034576,37.235913],[127.034075,37.235944],[127.032728,37.235012],[127.032407,37.234643],[127.032333,37.234224],[127.032164,37.234102],[127.031629,37.233881],[127.031617,37.233733],[127.031516,37.233629],[127.031352,37.233566],[127.030637,37.23358],[127.030445,37.233494],[127.030124,37.233017],[127.030191,37.232377],[127.030135,37.23226],[127.02991,37.232071],[127.029991,37.23122],[127.029706,37.231173],[127.029335,37.231226],[127.028694,37.23112],[127.028626,37.231127],[127.028493,37.231261],[127.028292,37.231216],[127.028,37.231052],[127.026844,37.230602],[127.026326,37.230639],[127.02609,37.230874],[127.025211,37.231013],[127.023802,37.230824],[127.023408,37.230932],[127.0232,37.230894],[127.023582,37.230234],[127.023447,37.229765],[127.023482,37.229691],[127.023597,37.229653],[127.023798,37.229672],[127.023797,37.229537],[127.024015,37.229608],[127.024215,37.229537],[127.024269,37.229458],[127.02427,37.229353],[127.02401,37.229208],[127.02392,37.228837],[127.024077,37.228477],[127.023818,37.228046],[127.023717,37.227738],[127.023888,37.227572],[127.024135,37.227519],[127.024145,37.227442],[127.024034,37.227318],[127.023676,37.227225],[127.023406,37.226954],[127.023192,37.226315],[127.023102,37.226215],[127.02328,37.225882],[127.02307,37.225747],[127.022705,37.225092],[127.02256,37.224909],[127.021871,37.224544],[127.021479,37.22472],[127.021181,37.225282],[127.020719,37.225522],[127.019716,37.225621],[127.018697,37.225874],[127.018402,37.225829],[127.015778,37.225806],[127.015247,37.225981],[127.014924,37.22615],[127.014259,37.226619],[127.014046,37.226703],[127.013574,37.226685],[127.012676,37.226433],[127.011383,37.226361],[127.010932,37.22642],[127.010611,37.226605],[127.0102,37.226641],[127.009432,37.226843],[127.008442,37.227019],[127.007676,37.227434],[127.007282,37.227555],[127.00722,37.227641],[127.007208,37.22806],[127.006622,37.228416],[127.006515,37.22865],[127.006538,37.22891],[127.006482,37.229056],[127.006346,37.229074],[127.006003,37.228889],[127.005648,37.228857],[127.004245,37.229074],[127.003997,37.229209],[127.003867,37.229425],[127.003732,37.229997],[127.00358,37.230119],[127.003327,37.230196],[127.002704,37.229945],[127.002842,37.229596],[127.003293,37.229367],[127.003372,37.229114],[127.00336,37.228885],[127.003281,37.22888],[127.003236,37.228803],[127.002893,37.228966],[127.002622,37.229033],[127.002391,37.229029],[127.002301,37.22888],[127.002205,37.228475],[127.001828,37.227979],[127.001456,37.227803],[127.001242,37.227637],[127.001309,37.227375],[127.001186,37.226983],[127.001219,37.226704],[127.001118,37.226519],[127.000893,37.226434],[127.00056,37.226447],[127.000278,37.226808],[127.00007,37.226776],[126.999845,37.226321],[126.999631,37.226195],[126.999338,37.226303],[126.999067,37.226262],[126.998932,37.226118],[126.998707,37.225641],[126.998481,37.225591],[126.998278,37.225623],[126.998177,37.226033],[126.998031,37.226294],[126.998207,37.226492],[126.998278,37.22669],[126.9982,37.226938],[126.997642,37.227019],[126.997535,37.227154],[126.997523,37.227231],[126.997681,37.227416],[126.997726,37.227569],[126.997659,37.227718],[126.997557,37.227772],[126.99723,37.227745],[126.996808,37.227614],[126.99669,37.227691],[126.996599,37.22788],[126.996599,37.228173],[126.996723,37.228429],[126.996813,37.228438],[126.996937,37.228285],[126.997315,37.228285],[126.997766,37.228614],[126.997873,37.228966],[126.997686,37.229179],[126.997456,37.229263],[126.997005,37.229254],[126.99656,37.229475],[126.995856,37.229628],[126.995326,37.230001],[126.994858,37.230466],[126.99443,37.230565],[126.993946,37.230493],[126.993534,37.23065],[126.993331,37.230623],[126.993092,37.230883],[126.992852,37.231033],[126.992689,37.231272],[126.992452,37.231285],[126.99199,37.231209],[126.991596,37.23097],[126.99128,37.231042],[126.990942,37.231321],[126.990582,37.231299],[126.990368,37.231438],[126.990334,37.231628],[126.99057,37.231907],[126.990559,37.23215],[126.990367,37.232276],[126.989984,37.232267],[126.989894,37.231704],[126.989759,37.231614],[126.989466,37.231686],[126.989291,37.231817],[126.989212,37.232132],[126.989579,37.232754],[126.989533,37.233556],[126.988767,37.233709],[126.988519,37.233803],[126.988271,37.234078],[126.987674,37.23424],[126.98746,37.23415],[126.987347,37.23397],[126.987342,37.233736],[126.98764,37.233551],[126.987685,37.233475],[126.987671,37.233417],[126.987528,37.233362],[126.987353,37.233366],[126.986756,37.233519],[126.986649,37.233601],[126.986615,37.233767],[126.98671,37.233871],[126.986829,37.234159],[126.986795,37.234263],[126.986643,37.23429],[126.986231,37.234092],[126.986102,37.233857],[126.986029,37.23356],[126.986299,37.232826],[126.985584,37.232645],[126.985285,37.232461],[126.985178,37.232312],[126.985009,37.23224],[126.985128,37.231978],[126.985083,37.231695],[126.984936,37.231478],[126.984897,37.231077],[126.984739,37.230812],[126.983911,37.23101],[126.983499,37.231429],[126.983218,37.231456],[126.982733,37.231627],[126.982598,37.231879],[126.982618,37.232142],[126.982428,37.232247],[126.981833,37.232306],[126.981065,37.232527],[126.980705,37.23223],[126.980344,37.231716],[126.98013,37.231613],[126.979815,37.230982],[126.979409,37.230838],[126.97906,37.230617],[126.978953,37.230365],[126.979021,37.229842],[126.978964,37.229455],[126.97817,37.22954],[126.977784,37.229655],[126.976536,37.230215],[126.975742,37.229544],[126.975196,37.229391],[126.974964,37.229413],[126.974637,37.2293],[126.974519,37.229309],[126.97426,37.229048],[126.973595,37.228863],[126.972897,37.228728],[126.972615,37.228819],[126.972266,37.228849],[126.971341,37.229038],[126.970581,37.229372],[126.970536,37.229322],[126.969865,37.229745],[126.96969,37.229952],[126.96942,37.23043],[126.969382,37.230736],[126.969318,37.230799],[126.969287,37.231475],[126.968991,37.231881],[126.968838,37.232507],[126.968664,37.232908],[126.968303,37.233272],[126.96819,37.233579],[126.968133,37.234426],[126.96788,37.234818],[126.96695,37.235489],[126.966437,37.235799],[126.965659,37.236182],[126.96505,37.236565],[126.964673,37.23687],[126.964128,37.237191],[126.963444,37.237452],[126.96186,37.237839],[126.960913,37.238199],[126.957763,37.239806],[126.957565,37.240013],[126.957492,37.24027],[126.957869,37.240964],[126.957959,37.241248],[126.957975,37.242933],[126.957292,37.24428],[126.956779,37.244707],[126.9567,37.245117],[126.956294,37.24618],[126.956175,37.246761],[126.955448,37.247086],[126.954997,37.247486],[126.954388,37.247774],[126.953638,37.248022],[126.953424,37.248225],[126.95339,37.248211],[126.952894,37.248747],[126.952724,37.249517],[126.952698,37.2505],[126.952503,37.25145],[126.952497,37.251729],[126.951697,37.252107],[126.950592,37.252463],[126.950361,37.252922],[126.950422,37.253463],[126.950281,37.253503],[126.949825,37.254062],[126.949768,37.254323],[126.949858,37.25435],[126.949999,37.255026],[126.950066,37.255121],[126.950032,37.255301],[126.9501,37.255504],[126.950083,37.255711],[126.949378,37.256044],[126.949006,37.256368],[126.948679,37.256481],[126.948391,37.256778],[126.947884,37.25703],[126.9475,37.257102],[126.946756,37.257457],[126.946345,37.257439],[126.945494,37.257155],[126.94497,37.257155],[126.944338,37.256997],[126.943589,37.256956],[126.9432,37.257077],[126.942665,37.25696],[126.942484,37.256991],[126.94156,37.256716],[126.941402,37.256874],[126.94081,37.256927],[126.940664,37.256878],[126.9405,37.256896],[126.940202,37.256778],[126.939491,37.256778],[126.939075,37.25667],[126.938748,37.256746],[126.938291,37.256705],[126.937981,37.256768],[126.937519,37.25675],[126.937051,37.256903],[126.936222,37.256799],[126.935794,37.256862],[126.935574,37.256974],[126.935207,37.257397],[126.935173,37.258091],[126.93462,37.258384],[126.934293,37.258816],[126.933069,37.259577],[126.93286,37.260306],[126.932454,37.260536],[126.932296,37.260811],[126.931822,37.260923],[126.930814,37.260927],[126.930639,37.261075],[126.93057,37.261648],[126.930322,37.262328],[126.930145,37.264022],[126.929593,37.264494],[126.929682,37.2649],[126.929631,37.265323],[126.929507,37.265684],[126.929597,37.265859],[126.929422,37.266193],[126.929624,37.266778],[126.92916,37.267091],[126.928896,37.267508],[126.928907,37.267999],[126.92819,37.268881],[126.928754,37.269287],[126.928962,37.269522],[126.929587,37.270599],[126.928488,37.270576],[126.928623,37.270823],[126.928589,37.271121],[126.928115,37.271274],[126.927467,37.27126],[126.927061,37.271336],[126.927077,37.271656],[126.926981,37.272061],[126.927307,37.27267],[126.927284,37.273165],[126.927346,37.273418],[126.92774,37.273684],[126.928096,37.273995],[126.928129,37.27413],[126.927993,37.275049],[126.928364,37.275792],[126.928538,37.276504],[126.928448,37.276779],[126.927635,37.277396],[126.927781,37.27818],[126.92733,37.278598],[126.927287,37.278806],[126.927614,37.279202],[126.927516,37.279422],[126.927992,37.280667],[126.928036,37.282258],[126.928106,37.282661],[126.928393,37.283169],[126.928446,37.283505],[126.928815,37.284208],[126.929142,37.285974],[126.930601,37.286382],[126.930711,37.286592],[126.931299,37.28696],[126.931381,37.287229],[126.931837,37.287866],[126.932051,37.288318],[126.932188,37.28916],[126.932542,37.290022],[126.932739,37.290231],[126.932911,37.291293],[126.933037,37.291576],[126.933451,37.291996],[126.933788,37.292079],[126.934163,37.292398],[126.934679,37.292501],[126.935038,37.292665],[126.935817,37.292841],[126.936161,37.293042],[126.936794,37.293213],[126.937133,37.293371],[126.93788,37.294175],[126.938108,37.29426],[126.938251,37.294346],[126.938091,37.294293],[126.938742,37.294632],[126.939459,37.295179],[126.93961,37.295397],[126.939535,37.295686],[126.939552,37.295917],[126.939439,37.296127],[126.939357,37.296615],[126.937967,37.296868],[126.93665,37.297568],[126.935436,37.298036],[126.935069,37.298583],[126.934815,37.298736],[126.934097,37.29902],[126.933883,37.299397],[126.933768,37.299873],[126.933411,37.300302],[126.932865,37.300706],[126.932381,37.300864],[126.932606,37.30231],[126.932933,37.303042],[126.934335,37.303339],[126.934642,37.303198],[126.935256,37.303115],[126.935723,37.302861],[126.936583,37.302836],[126.937167,37.302084],[126.938355,37.302022],[126.938484,37.301927],[126.93909,37.301797],[126.939266,37.301643],[126.939948,37.301542],[126.940353,37.301527],[126.941055,37.301613],[126.942073,37.300526],[126.942387,37.30034],[126.943313,37.300355],[126.943834,37.300321],[126.94412,37.300378],[126.944453,37.30038],[126.944762,37.300482],[126.944927,37.300647],[126.94522,37.300653],[126.947331,37.300537],[126.95096,37.30042],[126.95098,37.300596],[126.951154,37.30076],[126.951168,37.300856],[126.951915,37.301104],[126.952454,37.301203],[126.952413,37.301248],[126.952654,37.301316],[126.952794,37.301277],[126.952951,37.30136],[126.953028,37.301509],[126.952998,37.301551],[126.953172,37.301683],[126.953223,37.301857],[126.952961,37.302452],[126.952753,37.302654],[126.952865,37.302653],[126.953285,37.302911],[126.953533,37.302997],[126.95398,37.303083],[126.954232,37.303085],[126.954363,37.303142],[126.955638,37.302873],[126.955906,37.302697],[126.955949,37.302549],[126.956147,37.302351],[126.956609,37.302246],[126.957653,37.302234],[126.957683,37.302159],[126.957796,37.302161],[126.958567,37.30221],[126.958754,37.302329],[126.9596,37.302223],[126.960475,37.302264],[126.960791,37.30233],[126.960341,37.30222],[126.960667,37.302186],[126.961137,37.301865],[126.96182,37.301535],[126.963916,37.300902],[126.963725,37.300556],[126.963656,37.300132],[126.963657,37.299343],[126.963738,37.298797],[126.963694,37.298729],[126.964247,37.298131],[126.964579,37.297867],[126.964675,37.297659],[126.964654,37.297369],[126.96486,37.296892],[126.965273,37.29672],[126.965888,37.296662],[126.966022,37.296354],[126.966058,37.296016],[126.966265,37.295772],[126.966401,37.295772],[126.96664,37.295549],[126.967017,37.295317],[126.966984,37.295286],[126.967499,37.294858],[126.968034,37.294287],[126.968081,37.294184],[126.96813,37.293295],[126.96829,37.29305],[126.968258,37.292547],[126.968577,37.29166],[126.968736,37.29146],[126.968853,37.291123],[126.968864,37.29056],[126.968511,37.28996],[126.968542,37.289801],[126.969372,37.289353],[126.969508,37.289185],[126.969719,37.289065],[126.969954,37.288517],[126.969885,37.288055],[126.969682,37.287723],[126.96964,37.28674],[126.969611,37.286679],[126.969446,37.286634],[126.970364,37.286662],[126.97093,37.286795],[126.97137,37.286742],[126.971735,37.286823],[126.972056,37.287139],[126.97207,37.287285],[126.972546,37.28742],[126.972591,37.287493],[126.972917,37.287399],[126.973064,37.28728],[126.973175,37.286848],[126.973728,37.286186],[126.973759,37.285984],[126.973705,37.285985],[126.973646,37.285864],[126.973945,37.285734],[126.974514,37.285622],[126.974668,37.28555],[126.975082,37.285579],[126.975227,37.285628],[126.975369,37.285604],[126.978398,37.286641],[126.978752,37.286193],[126.980272,37.28463],[126.980533,37.284591],[126.981246,37.283752],[126.981278,37.283662],[126.982006,37.28385],[126.982267,37.283699],[126.983484,37.283968],[126.984103,37.283259],[126.984385,37.283024],[126.98481,37.2828],[126.984919,37.282876],[126.985179,37.282948],[126.986589,37.28286],[126.986817,37.28281],[126.986927,37.28274],[126.987257,37.282174],[126.987314,37.282152],[126.987058,37.281958],[126.986805,37.281668],[126.986392,37.280801],[126.986398,37.279893],[126.986629,37.279508],[126.986385,37.279112],[126.986147,37.278319],[126.985807,37.277743],[126.98573,37.27746],[126.985317,37.276827],[126.985115,37.276759],[126.985103,37.276506],[126.985364,37.276399],[126.985287,37.276276],[126.985284,37.275715],[126.985336,37.275456],[126.985803,37.27498],[126.985967,37.274881],[126.986465,37.274707],[126.986684,37.274827],[126.986658,37.274682],[126.987027,37.274608],[126.987287,37.274605],[126.987375,37.274829],[126.987505,37.27491],[126.993245,37.277362],[126.993985,37.276137],[126.994355,37.275336],[126.995301,37.273854],[126.995245,37.273832],[126.995638,37.273274],[126.997384,37.270141],[126.997212,37.270123],[126.99541,37.270482],[126.994776,37.270662],[126.994745,37.270614],[126.997529,37.269857],[126.998233,37.269624],[126.998008,37.269658],[126.997817,37.269588],[126.998541,37.266558],[126.999156,37.265838],[127.00121,37.263736],[127.001636,37.263903],[127.002203,37.264443],[127.00237,37.264369],[127.007027,37.263891],[127.006994,37.263969],[127.007244,37.264423],[127.006973,37.264854],[127.006432,37.26499],[127.006536,37.2653],[127.006342,37.265302],[127.006305,37.265236],[127.006117,37.265266],[127.006054,37.265357],[127.006129,37.265481],[127.006363,37.265615],[127.006455,37.265511],[127.006633,37.26546],[127.006674,37.265368],[127.007162,37.265266],[127.007577,37.265125],[127.007813,37.264929],[127.008106,37.264794],[127.008169,37.265271],[127.008331,37.265653],[127.008464,37.26582],[127.008748,37.265995],[127.00971,37.267054],[127.009829,37.267846],[127.010439,37.267354],[127.011779,37.266643],[127.011872,37.266718],[127.011858,37.266609],[127.011977,37.266533],[127.012229,37.26643],[127.012325,37.266509],[127.012382,37.26638],[127.012523,37.266348],[127.013114,37.265961],[127.013535,37.265913],[127.013728,37.265784],[127.014049,37.265713],[127.013974,37.265656],[127.013781,37.265626],[127.013241,37.264679],[127.013641,37.264349],[127.013775,37.263924],[127.014688,37.263931],[127.015248,37.264648],[127.015517,37.265098],[127.015682,37.264988],[127.016317,37.264829],[127.01672,37.26465],[127.017095,37.264414],[127.017681,37.264369],[127.017889,37.264313],[127.019256,37.264624],[127.020694,37.264728],[127.020598,37.264539],[127.031814,37.26166],[127.030478,37.25819],[127.036676,37.256521],[127.036062,37.255079],[127.036953,37.25484],[127.038617,37.254698],[127.038789,37.254612],[127.039537,37.254041],[127.039828,37.254028],[127.039962,37.253964],[127.040064,37.253843],[127.040323,37.253122],[127.040397,37.252716],[127.040502,37.252546],[127.041434,37.251457],[127.042171,37.250981],[127.041158,37.249972],[127.0411,37.249778],[127.041127,37.249639],[127.041415,37.248879],[127.041347,37.248508],[127.041201,37.248225],[127.040906,37.248044],[127.03967,37.247629],[127.039362,37.247374],[127.039157,37.247032],[127.039099,37.246791],[127.039243,37.246433],[127.039794,37.245851],[127.040273,37.245568],[127.040387,37.245425],[127.040483,37.245136],[127.040202,37.244441],[127.040228,37.24425],[127.040125,37.24457],[127.039798,37.244097],[127.039499,37.243813],[127.03933,37.243561],[127.039223,37.243565],[127.039082,37.243678],[127.038947,37.243552],[127.038941,37.243047],[127.038975,37.242894],[127.039116,37.242669],[127.038885,37.242457],[127.038676,37.242358],[127.038208,37.241926],[127.038315,37.241552],[127.038687,37.24152],[127.038614,37.241322],[127.038174,37.241052],[127.038011,37.24079],[127.037874,37.240658],[127.037736,37.2406],[127.037593,37.240565],[127.037205,37.24074],[127.036884,37.24018],[127.03684,37.239611],[127.036692,37.238932],[127.036972,37.238905],[127.03741,37.238951],[127.037481,37.238876],[127.037366,37.238334],[127.037201,37.238284],[127.037321,37.237257],[127.037538,37.237071],[127.037515,37.236922],[127.03742,37.236871],[127.037401,37.236701],[127.037225,37.236844]]]}},{"type":"Feature","properties":{"sig_cd":"41115","sig_kor_nm":"수원시 팔달구","ctp_kor_nm":"","full_nm":"수원시 팔달구","source":"Downloads.zip/sigungu/sig.shp"},"geometry":{"type":"Polygon","coordinates":[[[127.03582,37.293609],[127.036441,37.293241],[127.037148,37.29292],[127.038084,37.293008],[127.038822,37.292687],[127.039249,37.292406],[127.039436,37.292122],[127.039715,37.29208],[127.039817,37.292025],[127.040244,37.291646],[127.040763,37.291377],[127.040684,37.291354],[127.040798,37.291125],[127.041065,37.291031],[127.041201,37.290783],[127.040958,37.290801],[127.040839,37.290753],[127.040711,37.290687],[127.040536,37.29049],[127.040319,37.290746],[127.040362,37.290882],[127.040277,37.291122],[127.040014,37.291526],[127.039554,37.291757],[127.039076,37.291719],[127.038823,37.291625],[127.039234,37.291406],[127.03947,37.290803],[127.038327,37.290452],[127.038223,37.29019],[127.039685,37.290129],[127.040319,37.289978],[127.041317,37.289429],[127.042503,37.288411],[127.039607,37.286108],[127.039212,37.285693],[127.038958,37.285243],[127.038754,37.284673],[127.038673,37.283534],[127.0401,37.283825],[127.04014,37.284311],[127.040287,37.284567],[127.040412,37.284627],[127.040478,37.284922],[127.040567,37.285015],[127.040751,37.285085],[127.041171,37.285569],[127.04137,37.285587],[127.041595,37.285743],[127.041729,37.285779],[127.041748,37.285833],[127.042037,37.28593],[127.042287,37.285899],[127.042526,37.285972],[127.042922,37.285978],[127.043411,37.285829],[127.043272,37.285323],[127.042869,37.285033],[127.042853,37.284894],[127.042706,37.284708],[127.042627,37.28466],[127.042381,37.284749],[127.042165,37.284564],[127.041751,37.284073],[127.041846,37.283651],[127.042005,37.283452],[127.042057,37.283176],[127.0419,37.282954],[127.041816,37.282717],[127.042051,37.282548],[127.042079,37.282387],[127.042245,37.282315],[127.042742,37.28162],[127.042821,37.281114],[127.042764,37.280188],[127.043486,37.279744],[127.043574,37.27963],[127.043764,37.276517],[127.043698,37.276578],[127.043892,37.276011],[127.043808,37.275941],[127.043451,37.275935],[127.043623,37.27589],[127.043861,37.275945],[127.043913,37.275309],[127.044052,37.275164],[127.04415,37.275137],[127.044168,37.274951],[127.044274,37.274802],[127.045965,37.27429],[127.045638,37.274173],[127.040857,37.275568],[127.040529,37.275191],[127.039852,37.275143],[127.039371,37.274807],[127.038414,37.274754],[127.037646,37.275049],[127.037258,37.274966],[127.036795,37.273813],[127.037469,37.27332],[127.037609,37.273102],[127.038068,37.272841],[127.038614,37.272322],[127.03689,37.271577],[127.038362,37.26947],[127.033945,37.267547],[127.033754,37.267124],[127.03365,37.267068],[127.033259,37.267157],[127.033177,37.266996],[127.037743,37.265938],[127.037835,37.265782],[127.039841,37.265323],[127.039737,37.26508],[127.040078,37.265002],[127.040155,37.265183],[127.040103,37.265263],[127.040561,37.265158],[127.038334,37.259924],[127.038144,37.259967],[127.036676,37.256521],[127.030478,37.25819],[127.031814,37.26166],[127.020598,37.264539],[127.020694,37.264728],[127.019256,37.264624],[127.017889,37.264313],[127.017681,37.264369],[127.017095,37.264414],[127.01672,37.26465],[127.016317,37.264829],[127.015682,37.264988],[127.015517,37.265098],[127.015248,37.264648],[127.014688,37.263931],[127.013775,37.263924],[127.013641,37.264349],[127.013241,37.264679],[127.013781,37.265626],[127.013974,37.265656],[127.014049,37.265713],[127.013728,37.265784],[127.013535,37.265913],[127.013114,37.265961],[127.012523,37.266348],[127.012382,37.26638],[127.012325,37.266509],[127.012229,37.26643],[127.011977,37.266533],[127.011858,37.266609],[127.011872,37.266718],[127.011779,37.266643],[127.010439,37.267354],[127.009829,37.267846],[127.00971,37.267054],[127.008748,37.265995],[127.008464,37.26582],[127.008331,37.265653],[127.008169,37.265271],[127.008106,37.264794],[127.007813,37.264929],[127.007577,37.265125],[127.007162,37.265266],[127.006674,37.265368],[127.006633,37.26546],[127.006455,37.265511],[127.006363,37.265615],[127.006129,37.265481],[127.006054,37.265357],[127.006117,37.265266],[127.006305,37.265236],[127.006342,37.265302],[127.006536,37.2653],[127.006432,37.26499],[127.006973,37.264854],[127.007244,37.264423],[127.006994,37.263969],[127.007027,37.263891],[127.00237,37.264369],[127.002203,37.264443],[127.001636,37.263903],[127.00121,37.263736],[126.999156,37.265838],[126.998541,37.266558],[126.997817,37.269588],[126.998008,37.269658],[126.998233,37.269624],[126.997529,37.269857],[126.994745,37.270614],[126.994776,37.270662],[126.99541,37.270482],[126.997212,37.270123],[126.997384,37.270141],[126.995638,37.273274],[126.995245,37.273832],[126.995301,37.273854],[126.994355,37.275336],[126.993985,37.276137],[126.993245,37.277362],[126.987505,37.27491],[126.987375,37.274829],[126.987287,37.274605],[126.987027,37.274608],[126.986658,37.274682],[126.986669,37.27483],[126.986465,37.274707],[126.985967,37.274881],[126.985803,37.27498],[126.985336,37.275456],[126.985284,37.275715],[126.985287,37.276276],[126.985364,37.276399],[126.985181,37.276445],[126.985077,37.276551],[126.985115,37.276759],[126.985317,37.276827],[126.98573,37.27746],[126.985807,37.277743],[126.986147,37.278319],[126.986385,37.279112],[126.986629,37.279508],[126.986398,37.279893],[126.986392,37.280801],[126.986805,37.281668],[126.987058,37.281958],[126.987314,37.282152],[126.987257,37.282174],[126.987031,37.282617],[126.986817,37.28281],[126.986414,37.282877],[126.985116,37.282947],[126.98481,37.2828],[126.984385,37.283024],[126.984103,37.283259],[126.983484,37.283968],[126.982267,37.283699],[126.982006,37.28385],[126.981278,37.283662],[126.981246,37.283752],[126.980533,37.284591],[126.980272,37.28463],[126.978573,37.286389],[126.977338,37.288359],[126.983552,37.290752],[126.983813,37.290803],[126.983905,37.290973],[126.984027,37.291075],[126.984232,37.290848],[126.984698,37.291028],[126.98616,37.289401],[126.986072,37.289378],[126.986099,37.289352],[126.986017,37.289304],[126.986549,37.288698],[126.986643,37.288747],[126.986507,37.288905],[126.98758,37.289684],[126.987728,37.289841],[126.988016,37.289831],[126.988459,37.289581],[126.988549,37.289572],[126.990489,37.286351],[126.993859,37.287643],[126.994008,37.287634],[126.997023,37.288782],[126.998355,37.289155],[126.998962,37.289191],[126.999597,37.289291],[127.000683,37.289652],[127.002523,37.287936],[127.005631,37.286381],[127.005704,37.286258],[127.00594,37.28613],[127.006104,37.285895],[127.006461,37.285786],[127.006885,37.28573],[127.007142,37.285193],[127.007422,37.285454],[127.007781,37.285701],[127.00948,37.285512],[127.009514,37.28565],[127.00964,37.285674],[127.009514,37.285857],[127.009586,37.285882],[127.009634,37.285809],[127.009759,37.285846],[127.010781,37.286316],[127.010764,37.286372],[127.010849,37.286395],[127.010881,37.286354],[127.011119,37.286447],[127.011702,37.286833],[127.012123,37.287051],[127.012267,37.287159],[127.012201,37.28722],[127.012264,37.287267],[127.01233,37.287212],[127.012619,37.287407],[127.012845,37.287622],[127.013369,37.288363],[127.013459,37.28858],[127.01341,37.288652],[127.013481,37.288682],[127.013543,37.288612],[127.013805,37.288675],[127.013975,37.288775],[127.013932,37.288918],[127.014017,37.289034],[127.014198,37.289099],[127.014388,37.288985],[127.014724,37.289189],[127.014754,37.289252],[127.014689,37.289324],[127.01477,37.28936],[127.014814,37.289274],[127.014887,37.289315],[127.014923,37.289267],[127.014873,37.289191],[127.014984,37.289101],[127.016395,37.288553],[127.016438,37.288626],[127.016513,37.288592],[127.016461,37.28851],[127.016972,37.288141],[127.017206,37.28771],[127.017303,37.287634],[127.018151,37.28763],[127.018289,37.287514],[127.018308,37.287401],[127.018434,37.287261],[127.018411,37.287225],[127.018502,37.287221],[127.018765,37.287049],[127.018914,37.287048],[127.019284,37.287276],[127.019633,37.287369],[127.020401,37.28712],[127.02125,37.287395],[127.02124,37.287422],[127.021336,37.287381],[127.021346,37.287444],[127.021883,37.287659],[127.022421,37.288023],[127.022814,37.288557],[127.023214,37.288651],[127.023536,37.288941],[127.023615,37.289106],[127.023814,37.289124],[127.0242,37.289417],[127.024367,37.289436],[127.024526,37.28937],[127.024676,37.289162],[127.02482,37.289081],[127.024887,37.289179],[127.02526,37.288992],[127.02535,37.288788],[127.025408,37.288827],[127.025286,37.289007],[127.024915,37.289201],[127.025074,37.289551],[127.026037,37.290904],[127.02637,37.291189],[127.026773,37.291407],[127.028824,37.291954],[127.028971,37.291803],[127.030623,37.292281],[127.031509,37.292446],[127.03165,37.292513],[127.032897,37.292596],[127.032882,37.292675],[127.033735,37.29299],[127.034083,37.293362],[127.034371,37.293234],[127.035807,37.293425],[127.035868,37.293481],[127.035794,37.29348],[127.035816,37.293587],[127.03582,37.293609]]]}},{"type":"Feature","properties":{"sig_cd":"41117","sig_kor_nm":"수원시 영통구","ctp_kor_nm":"","full_nm":"수원시 영통구","source":"Downloads.zip/sigungu/sig.shp"},"geometry":{"type":"Polygon","coordinates":[[[127.047474,37.316626],[127.047501,37.316609],[127.047726,37.316848],[127.048689,37.316532],[127.048901,37.316207],[127.049002,37.316136],[127.049986,37.315826],[127.051714,37.3159],[127.052321,37.315875],[127.052785,37.316084],[127.05363,37.316024],[127.053863,37.3162],[127.054713,37.315785],[127.055459,37.315513],[127.056773,37.31565],[127.057632,37.315591],[127.05769,37.315546],[127.057724,37.31537],[127.057568,37.314939],[127.057747,37.314377],[127.057871,37.314242],[127.058215,37.314083],[127.058313,37.313989],[127.058513,37.313514],[127.058772,37.312435],[127.059817,37.311419],[127.06019,37.311141],[127.060569,37.310967],[127.06038,37.310782],[127.060202,37.310246],[127.059889,37.309833],[127.060395,37.309602],[127.060923,37.309145],[127.06075,37.308318],[127.060276,37.307724],[127.060207,37.30745],[127.059511,37.306965],[127.059449,37.306684],[127.05891,37.306306],[127.058834,37.306017],[127.058166,37.304791],[127.058624,37.304518],[127.059294,37.304246],[127.060261,37.304034],[127.060504,37.304088],[127.060835,37.303565],[127.060999,37.302195],[127.060801,37.301826],[127.060801,37.301358],[127.060288,37.300449],[127.059949,37.299726],[127.059962,37.299643],[127.06059,37.298732],[127.060522,37.297883],[127.060406,37.297182],[127.060251,37.296627],[127.06902,37.295088],[127.079181,37.293231],[127.079621,37.295064],[127.080055,37.29515],[127.080607,37.29542],[127.080896,37.295875],[127.081096,37.296085],[127.081467,37.29617],[127.081798,37.296584],[127.082156,37.296861],[127.08255,37.297085],[127.082748,37.297633],[127.082809,37.297667],[127.083401,37.297781],[127.08464,37.297332],[127.085295,37.297778],[127.08584,37.298622],[127.086503,37.298292],[127.087245,37.298116],[127.087557,37.297905],[127.087773,37.297924],[127.088363,37.297807],[127.088813,37.297811],[127.08913,37.298124],[127.089632,37.298258],[127.089471,37.297909],[127.089248,37.297644],[127.089039,37.297174],[127.089023,37.296569],[127.088947,37.296259],[127.089441,37.295075],[127.089409,37.294672],[127.089171,37.294214],[127.089335,37.293571],[127.089222,37.29339],[127.088285,37.293175],[127.088186,37.292157],[127.088313,37.291887],[127.088402,37.2912],[127.087989,37.290936],[127.088037,37.289912],[127.088349,37.289359],[127.088538,37.288787],[127.088993,37.28847],[127.088821,37.288114],[127.088839,37.287917],[127.089312,37.286871],[127.087625,37.285689],[127.087403,37.285623],[127.08691,37.285608],[127.086309,37.285679],[127.085892,37.28515],[127.085619,37.285021],[127.085319,37.285148],[127.084893,37.285493],[127.084415,37.285655],[127.083773,37.285439],[127.082821,37.285268],[127.082594,37.285274],[127.081844,37.284913],[127.081616,37.284652],[127.081468,37.284368],[127.081366,37.283772],[127.079971,37.283832],[127.079628,37.283515],[127.078421,37.283684],[127.076548,37.283035],[127.076211,37.282993],[127.075951,37.282748],[127.075451,37.282633],[127.074939,37.282212],[127.07516,37.281482],[127.074209,37.281197],[127.073787,37.280928],[127.073191,37.280766],[127.072418,37.280855],[127.071438,37.280679],[127.071287,37.280594],[127.071112,37.280472],[127.070842,37.279949],[127.07039,37.279363],[127.070002,37.279111],[127.069784,37.278865],[127.06938,37.278809],[127.068965,37.278679],[127.069023,37.278237],[127.069182,37.277784],[127.069497,37.277201],[127.069518,37.276956],[127.069385,37.276766],[127.068759,37.276441],[127.068219,37.275841],[127.068201,37.275285],[127.067951,37.274486],[127.066974,37.274116],[127.066809,37.273855],[127.066742,37.27352],[127.066752,37.273261],[127.065915,37.272827],[127.065676,37.272593],[127.065095,37.271134],[127.064918,37.270871],[127.064725,37.270414],[127.064761,37.270303],[127.064476,37.27008],[127.06449,37.26994],[127.064202,37.269872],[127.064098,37.269408],[127.064024,37.269367],[127.067865,37.26876],[127.067859,37.26873],[127.068943,37.268549],[127.06896,37.268403],[127.068791,37.268223],[127.068858,37.268092],[127.068999,37.267943],[127.069399,37.267823],[127.069667,37.267639],[127.069735,37.267404],[127.069968,37.267028],[127.070137,37.266866],[127.070563,37.26665],[127.070589,37.266594],[127.071078,37.266591],[127.071771,37.266391],[127.072087,37.266112],[127.072594,37.266042],[127.073528,37.266062],[127.073918,37.26612],[127.07432,37.266238],[127.07479,37.266097],[127.074872,37.265996],[127.074845,37.265883],[127.074984,37.265828],[127.075232,37.265805],[127.075459,37.265875],[127.075511,37.265793],[127.075629,37.265762],[127.075581,37.26579],[127.077317,37.265686],[127.077166,37.266871],[127.077696,37.266861],[127.078479,37.266947],[127.08087,37.267523],[127.081558,37.267755],[127.082393,37.268174],[127.084883,37.269911],[127.085511,37.268797],[127.085644,37.26705],[127.086228,37.264873],[127.084489,37.262554],[127.082059,37.262074],[127.080778,37.259903],[127.08096,37.258493],[127.08199,37.258564],[127.08289,37.258573],[127.083685,37.258793],[127.083898,37.258288],[127.083905,37.257933],[127.084258,37.257328],[127.084489,37.257066],[127.084685,37.25649],[127.08402,37.255954],[127.083913,37.255584],[127.083636,37.255428],[127.083737,37.255003],[127.083111,37.254712],[127.082987,37.254568],[127.082632,37.254446],[127.082418,37.254437],[127.082113,37.254262],[127.082225,37.254023],[127.081929,37.253018],[127.081849,37.252807],[127.081751,37.2527],[127.082663,37.251635],[127.081947,37.250889],[127.082258,37.250377],[127.082504,37.250116],[127.082317,37.249671],[127.081923,37.249169],[127.081686,37.248718],[127.080991,37.248352],[127.081048,37.248271],[127.081011,37.248228],[127.08006,37.247402],[127.079452,37.247359],[127.078403,37.247493],[127.0774,37.247387],[127.07598,37.247427],[127.075484,37.247342],[127.074906,37.247179],[127.073891,37.247012],[127.073489,37.246992],[127.073308,37.247037],[127.072671,37.246906],[127.072526,37.246826],[127.072346,37.246817],[127.071978,37.246691],[127.071574,37.246655],[127.071347,37.24652],[127.07071,37.246444],[127.069815,37.246207],[127.069295,37.245985],[127.069193,37.245715],[127.068884,37.245421],[127.067896,37.244684],[127.067349,37.244477],[127.067084,37.244306],[127.066171,37.243878],[127.065861,37.243806],[127.0655,37.243788],[127.065473,37.24369],[127.065833,37.243645],[127.066312,37.243765],[127.066307,37.2435],[127.066452,37.242986],[127.066252,37.242587],[127.066232,37.242189],[127.066078,37.241777],[127.066011,37.241171],[127.066107,37.24099],[127.06658,37.241152],[127.066862,37.241017],[127.067076,37.240489],[127.066912,37.240247],[127.066917,37.240185],[127.066505,37.240078],[127.066251,37.240171],[127.065943,37.240204],[127.065147,37.240127],[127.064492,37.239277],[127.064132,37.239112],[127.063589,37.239048],[127.063318,37.238953],[127.063109,37.238733],[127.062474,37.238346],[127.061873,37.237738],[127.061537,37.237481],[127.060201,37.236862],[127.060039,37.236729],[127.059975,37.236577],[127.060021,37.236303],[127.059847,37.235762],[127.059436,37.235175],[127.058927,37.234769],[127.058316,37.234184],[127.056067,37.232864],[127.05596,37.232764],[127.055608,37.232685],[127.054571,37.232066],[127.053716,37.231788],[127.053004,37.231436],[127.052882,37.231425],[127.052697,37.231276],[127.052454,37.231386],[127.052509,37.231541],[127.053656,37.232207],[127.053775,37.23233],[127.053586,37.233399],[127.053434,37.233545],[127.051528,37.234326],[127.051272,37.234325],[127.050793,37.234247],[127.050758,37.234206],[127.050737,37.23424],[127.04958,37.234068],[127.048032,37.233265],[127.047705,37.233218],[127.047661,37.233275],[127.046915,37.23293],[127.046704,37.232873],[127.046639,37.232919],[127.046077,37.232846],[127.046077,37.23416],[127.046149,37.234262],[127.046066,37.234263],[127.046066,37.234357],[127.046149,37.234418],[127.046075,37.234476],[127.046076,37.235681],[127.045682,37.23542],[127.045653,37.236028],[127.045603,37.235991],[127.044351,37.23604],[127.043793,37.236805],[127.04387,37.238293],[127.043942,37.23854],[127.044047,37.238572],[127.04342,37.238798],[127.042551,37.239],[127.041235,37.239095],[127.040393,37.23906],[127.039221,37.238924],[127.038132,37.238741],[127.037435,37.238538],[127.037481,37.238876],[127.03741,37.238951],[127.036972,37.238905],[127.036692,37.238932],[127.03684,37.239611],[127.036884,37.24018],[127.037205,37.24074],[127.037593,37.240565],[127.037736,37.2406],[127.037874,37.240658],[127.038011,37.24079],[127.038174,37.241052],[127.038614,37.241322],[127.038687,37.24152],[127.038315,37.241552],[127.038208,37.241926],[127.038676,37.242358],[127.038885,37.242457],[127.039116,37.242669],[127.038975,37.242894],[127.038941,37.243047],[127.038947,37.243552],[127.039082,37.243678],[127.039223,37.243565],[127.03933,37.243561],[127.039499,37.243813],[127.039798,37.244097],[127.040125,37.24457],[127.040228,37.24425],[127.040202,37.244441],[127.040483,37.245136],[127.040469,37.245255],[127.040273,37.245568],[127.039794,37.245851],[127.039243,37.246433],[127.039099,37.246791],[127.039157,37.247032],[127.039362,37.247374],[127.03967,37.247629],[127.040906,37.248044],[127.041201,37.248225],[127.041347,37.248508],[127.041415,37.248879],[127.041127,37.249639],[127.0411,37.249778],[127.041158,37.249972],[127.042171,37.250981],[127.041434,37.251457],[127.040502,37.252546],[127.040397,37.252716],[127.040323,37.253122],[127.040064,37.253843],[127.039962,37.253964],[127.039828,37.254028],[127.039537,37.254041],[127.038789,37.254612],[127.038617,37.254698],[127.036953,37.25484],[127.036062,37.255079],[127.038144,37.259967],[127.038334,37.259924],[127.040561,37.265158],[127.040103,37.265263],[127.040155,37.265183],[127.040078,37.265002],[127.039737,37.26508],[127.039841,37.265323],[127.037835,37.265782],[127.037743,37.265938],[127.033177,37.266996],[127.033259,37.267157],[127.03365,37.267068],[127.033754,37.267124],[127.033945,37.267547],[127.038362,37.26947],[127.03689,37.271577],[127.038614,37.272322],[127.038068,37.272841],[127.037609,37.273102],[127.037469,37.27332],[127.036795,37.273813],[127.037258,37.274966],[127.037646,37.275049],[127.038414,37.274754],[127.039371,37.274807],[127.039852,37.275143],[127.040529,37.275191],[127.040857,37.275568],[127.045638,37.274173],[127.045965,37.27429],[127.044274,37.274802],[127.044168,37.274951],[127.04415,37.275137],[127.044052,37.275164],[127.043913,37.275309],[127.043861,37.275945],[127.043623,37.27589],[127.043451,37.275935],[127.043808,37.275941],[127.043892,37.276011],[127.043698,37.276578],[127.043764,37.276517],[127.043574,37.27963],[127.043486,37.279744],[127.042764,37.280188],[127.042821,37.281114],[127.042742,37.28162],[127.042245,37.282315],[127.042079,37.282387],[127.042051,37.282548],[127.041816,37.282717],[127.0419,37.282954],[127.042057,37.283176],[127.042005,37.283452],[127.041846,37.283651],[127.041751,37.284073],[127.042165,37.284564],[127.042381,37.284749],[127.042627,37.28466],[127.042706,37.284708],[127.042853,37.284894],[127.042869,37.285033],[127.043272,37.285323],[127.043411,37.285829],[127.042922,37.285978],[127.042526,37.285972],[127.042287,37.285899],[127.042037,37.28593],[127.041748,37.285833],[127.041729,37.285779],[127.041595,37.285743],[127.04137,37.285587],[127.041171,37.285569],[127.040751,37.285085],[127.040567,37.285015],[127.040478,37.284922],[127.040412,37.284627],[127.040287,37.284567],[127.04014,37.284311],[127.0401,37.283825],[127.038673,37.283534],[127.038754,37.284673],[127.038958,37.285243],[127.039212,37.285693],[127.039607,37.286108],[127.042503,37.288411],[127.041317,37.289429],[127.040319,37.289978],[127.039685,37.290129],[127.038223,37.29019],[127.038327,37.290452],[127.03947,37.290803],[127.039234,37.291406],[127.038823,37.291625],[127.039076,37.291719],[127.039554,37.291757],[127.040014,37.291526],[127.040277,37.291122],[127.040362,37.290882],[127.040319,37.290746],[127.040536,37.29049],[127.040711,37.290687],[127.040839,37.290753],[127.040958,37.290801],[127.041201,37.290783],[127.041152,37.290937],[127.040993,37.291078],[127.040798,37.291125],[127.040684,37.291354],[127.040763,37.291377],[127.040244,37.291646],[127.039817,37.292025],[127.039715,37.29208],[127.039436,37.292122],[127.039249,37.292406],[127.038926,37.292633],[127.038084,37.293008],[127.037148,37.29292],[127.036441,37.293241],[127.03582,37.293609],[127.035794,37.29348],[127.035868,37.293481],[127.035807,37.293425],[127.034371,37.293234],[127.034025,37.293415],[127.034324,37.293697],[127.034432,37.293711],[127.035231,37.294189],[127.035046,37.294286],[127.035028,37.294397],[127.035149,37.294402],[127.034361,37.295662],[127.034128,37.29589],[127.033883,37.296471],[127.03386,37.297044],[127.034179,37.297694],[127.034172,37.297814],[127.033651,37.298268],[127.033524,37.29851],[127.033571,37.298779],[127.032863,37.299963],[127.032712,37.300507],[127.032581,37.300493],[127.03274,37.300821],[127.032781,37.301183],[127.032906,37.301213],[127.032897,37.301607],[127.033047,37.301883],[127.033093,37.302445],[127.033004,37.302833],[127.033204,37.303155],[127.033105,37.303464],[127.033216,37.303935],[127.033161,37.304011],[127.033217,37.304482],[127.033324,37.304773],[127.033323,37.30497],[127.033309,37.305289],[127.03306,37.305719],[127.033197,37.306161],[127.03324,37.30655],[127.033185,37.306893],[127.032959,37.307303],[127.033241,37.307913],[127.032864,37.308253],[127.032689,37.308974],[127.032644,37.309458],[127.032391,37.309641],[127.032606,37.310136],[127.032937,37.310711],[127.033134,37.310935],[127.032966,37.311691],[127.033517,37.312163],[127.033724,37.312407],[127.034297,37.313644],[127.03464,37.313723],[127.035156,37.314034],[127.035401,37.314279],[127.035891,37.314502],[127.036605,37.315172],[127.037104,37.315279],[127.037896,37.315725],[127.03812,37.316068],[127.038407,37.316358],[127.038686,37.317156],[127.038806,37.317318],[127.038645,37.31782],[127.038694,37.31889],[127.038908,37.319103],[127.038929,37.319533],[127.038787,37.320153],[127.038851,37.320485],[127.039354,37.320806],[127.03982,37.320995],[127.040285,37.320882],[127.041695,37.319448],[127.042271,37.319051],[127.043189,37.318695],[127.043932,37.318496],[127.044535,37.318234],[127.045515,37.318055],[127.04599,37.317247],[127.046059,37.317196],[127.046959,37.316948],[127.047474,37.316626]]]}}]}